[{"OBJECT_NAME":"STARLINK-3733","OBJECT_ID":"2022-029BB","EPOCH":"2026-03-09T09:18:51.061536","MEAN_MOTION":15.08834872,"ECCENTRICITY":0.00012691,"INCLINATION":53.217,"RA_OF_ASC_NODE":70.4718,"ARG_OF_PERICENTER":88.4998,"MEAN_ANOMALY":271.6139,"EPHEMERIS_TYPE":0,"CLASSIFICATION_TYPE":"U","NORAD_CAT_ID":52137,"ELEMENT_SET_NO":999,"REV_AT_EPOCH":22089,"BSTAR":-7.869124e-6,"MEAN_MOTION_DOT":-4.13e-6,"MEAN_MOTION_DDOT":0},{"OBJECT_NAME":"COSMOS 2251 DEB","OBJECT_ID":"1993-036SV","EPOCH":"2026-03-09T21:55:42.811680","MEAN_MOTION":15.15006345,"ECCENTRICITY":0.00579573,"INCLINATION":74.0283,"RA_OF_ASC_NODE":1.8812,"ARG_OF_PERICENTER":55.6817,"MEAN_ANOMALY":304.9843,"EPHEMERIS_TYPE":0,"CLASSIFICATION_TYPE":"U","NORAD_CAT_ID":34452,"ELEMENT_SET_NO":999,"REV_AT_EPOCH":91981,"BSTAR":0.0011020825,"MEAN_MOTION_DOT":0.00021495,"MEAN_MOTION_DDOT":0}]
